BEIDOU 3 (C01)          
1 36287U 10001A   22176.85651512 -.00000275  00000+0  00000+0 0  9992
2 36287   1.8973  48.3689 0003981  28.9812 285.3595  1.00274079 45595
BEIDOU 5 (C06)          
1 36828U 10036A   22175.75130793 -.00000034  00000+0  00000+0 0  9995
2 36828  54.1956 176.1595 0031014 190.5384 281.3916  1.00296746 43655
BEIDOU 6 (C04)          
1 37210U 10057A   22176.86035272 -.00000106  00000+0  00000+0 0  9993
2 37210   0.8654  48.2714 0003592 124.5229 210.9039  1.00270777 42728
BEIDOU 7 (C07)          
1 37256U 10068A   22176.17025810 -.00000217  00000+0  00000+0 0  9999
2 37256  50.1984 289.5579 0021790 185.3667 323.9852  1.00247459 42226
BEIDOU 8 (C08)          
1 37384U 11013A   22176.61299677 -.00000202  00000+0  00000+0 0  9999
2 37384  60.3005  54.1788 0018080 184.0597   1.5676  1.00254184 41101
BEIDOU 9 (C09)          
1 37763U 11038A   22176.46715994  .00000005  00000+0  00000+0 0  9995
2 37763  54.4772 178.6461 0098495 228.1969 130.4618  1.00277653 40077
BEIDOU 10 (C10)         
1 37948U 11073A   22176.27335307 -.00000175  00000+0  00000+0 0  9993
2 37948  50.3141 289.1948 0083734 217.7564 318.5135  1.00292106 38834
BEIDOU 11 (C05)         
1 38091U 12008A   22175.99945412  .00000061  00000+0  00000+0 0  9997
2 38091   1.5798  67.6501 0014755 340.0464 283.8918  1.00273775 37901
BEIDOU 12 (C11)         
1 38250U 12018A   22176.79226909 -.00000103  00000+0  00000+0 0  9995
2 38250  56.6958 353.2847 0020199 252.5394 148.9069  1.86234304 69241
BEIDOU 13 (C12)         
1 38251U 12018B   22176.36608083 -.00000103  00000+0  00000+0 0  9996
2 38251  56.6101 352.6216 0010963 254.7754 265.1447  1.86234099 69239
BEIDOU 15 (C14)         
1 38775U 12050B   22176.62881211 -.00000050  00000+0  00000+0 0  9999
2 38775  55.4052 111.4095 0015180 323.8667 208.4399  1.86231310 66613
BEIDOU 16 (C02)         
1 38953U 12059A   22176.41481118 -.00000171  00000+0  00000+0 0  9999
2 38953   2.0094  84.3676 0011251 302.7930 119.7616  1.00272221 35346
BEIDOU 17 (C31)         
1 40549U 15019A   22176.34484204 -.00000191  00000+0  00000+0 0  9995
2 40549  51.8747 312.6626 0036357 193.0736 344.3919  1.00295227 26510
BEIDOU 18 (C57)         
1 40748U 15037A   22176.73967075 -.00000105  00000+0  00000+0 0  9996
2 40748  55.8634 351.4714 0004818  46.1351 273.6682  1.86233303 47062
BEIDOU 19 (C58)         
1 40749U 15037B   22175.84516337 -.00000104  00000+0  00000+0 0  9998
2 40749  55.8642 351.4909 0003870   1.0578 213.5121  1.86232162 47047
BEIDOU 20 (C18)         
1 40938U 15053A   22176.75049659 -.00000148  00000+0  00000+0 0  9993
2 40938  51.4857 275.7795 0045405 196.4922 166.2313  1.00291185 24789
BEIDOU IGSO-6 (C13)     
1 41434U 16021A   22176.34156697 -.00000184  00000+0  00000+0 0  9997
2 41434  58.1100  52.7543 0043427 217.6828 221.9348  1.00281502 22915
BEIDOU-2 G7 (C03)       
1 41586U 16037A   22175.73521628 -.00000349  00000+0  00000+0 0  9997
2 41586   1.9896  69.8455 0008226   3.8878 214.2000  1.00262848 22204
BEIDOU-3 M1 (C19)       
1 43001U 17069A   22176.39818903 -.00000048  00000+0  00000+0 0  9991
2 43001  55.5572 111.4192 0011685 295.4293 238.5310  1.86231697 31541
BEIDOU-3 M2 (C20)       
1 43002U 17069B   22176.35602035 -.00000048  00000+0  00000+0 0  9995
2 43002  55.5572 111.4559 0010144 314.0282 234.6845  1.86231389 31531
BEIDOU-3 M3 (C27)       
1 43107U 18003A   22176.85946346 -.00000106  00000+0  00000+0 0  9996
2 43107  55.3147 352.3791 0005752  62.6647 269.7082  1.86232319 30307
BEIDOU-3 M4 (C28)       
1 43108U 18003B   22176.74164645 -.00000106  00000+0  00000+0 0  9999
2 43108  55.3054 352.3734 0001640 251.3981  45.8362  1.86230929 30301
BEIDOU-3 M5 (C21)       
1 43207U 18018A   22175.66943186 -.00000043  00000+0  00000+0 0  9990
2 43207  55.5170 111.5578 0007302 334.1746  25.7529  1.86231603 29673
BEIDOU-3 M6 (C22)       
1 43208U 18018B   22175.36538241 -.00000040  00000+0  00000+0 0  9997
2 43208  55.5165 111.5723 0009677 305.5797 165.7644  1.86231430 29665
BEIDOU-3 M7 (C29)       
1 43245U 18029A   22176.27442595 -.00000107  00000+0  00000+0 0  9991
2 43245  55.2271 350.1679 0001274  86.2645 124.2942  1.86232458 28832
BEIDOU-3 M8 (C30)       
1 43246U 18029B   22175.64370441 -.00000106  00000+0  10000-3 0  9996
2 43246  55.2242 350.2200 0004347  15.1326 179.0996  1.86232892 28810
BEIDOU IGSO-7 (C16)     
1 43539U 18057A   22176.60489773 -.00000040  00000+0  00000+0 0  9990
2 43539  55.0773 175.6288 0049641 227.8381 197.7092  1.00255734 14596
BEIDOU-3 M9 (C23)       
1 43581U 18062A   22176.74367307  .00000056  00000+0  00000+0 0  9992
2 43581  54.2736 231.8015 0004988 266.2190 156.5324  1.86231875 26583
BEIDOU-3 M10 (C24)      
1 43582U 18062B   22176.60079472  .00000054  00000+0  00000+0 0  9999
2 43582  54.2721 231.7967 0004151 348.6558  70.0792  1.86232094 26581
BEIDOU-3 M11 (C25)      
1 43602U 18067A   22176.52828090  .00000057  00000+0  00000+0 0  9999
2 43602  54.3554 230.4136 0006495   3.2880  48.2437  1.86231681 26076
BEIDOU-3 M12 (C26)      
1 43603U 18067B   22176.61377503  .00000058  00000+0  00000+0 0  9999
2 43603  54.3522 230.3766 0003828 347.2124  32.0145  1.86231665 26090
BEIDOU-3 M13 (C32)      
1 43622U 18072A   22176.27335238 -.00000048  00000+0  00000+0 0  9997
2 43622  55.4843 111.0916 0008326 293.4998 246.7429  1.86231804 25598
BEIDOU-3 M14 (C33)      
1 43623U 18072B   22176.60686648 -.00000050  00000+0  00000+0 0  9992
2 43623  55.4864 111.0721 0006380 312.9021 181.1821  1.86231793 25605
BEIDOU-3 M15 (C34)      
1 43647U 18078A   22176.57686545 -.00000107  00000+0  10000-3 0  9994
2 43647  55.1220 350.3159 0006717  15.6662 353.8544  1.86232653 25111
BEIDOU-3 M16 (C35)      
1 43648U 18078B   22176.79839176 -.00000107  00000+0  00000+0 0  9994
2 43648  55.1178 350.3154 0004915  29.4872  36.3346  1.86232203 25139
BEIDOU-3 G1 (C59)       
1 43683U 18085A   22176.56938772 -.00000272  00000+0  00000+0 0  9991
2 43683   0.8977 164.4763 0003598 344.1194 110.0721  1.00268314 13493
BEIDOU-3 M17 (C36)      
1 43706U 18093A   22176.31461436  .00000052  00000+0  00000+0 0  9992
2 43706  54.3548 231.7013 0010642 270.5354  89.4286  1.86232092 24485
BEIDOU-3 M18 (C37)      
1 43707U 18093B   22176.24985535  .00000052  00000+0  00000+0 0  9996
2 43707  54.3552 231.6947 0008366 295.0808 112.6884  1.86232226 24473
BEIDOU-3 IGSO-1 (C38)   
1 44204U 19023A   22176.56472659 -.00000239  00000+0  00000+0 0  9994
2 44204  56.5692  52.8823 0019267 197.8660 343.0355  1.00255094 11796
BEIDOU-2 G8             
1 44231U 19027A   22176.85730008 -.00000241  00000+0  00000+0 0  9998
2 44231   0.8817  76.4559 0004581 107.3759 183.3077  1.00271428 11518
BEIDOU-3 IGSO-2 (C39)   
1 44337U 19035A   22176.60215005 -.00000053  00000+0  00000+0 0  9993
2 44337  55.1204 171.6478 0023463 199.8292 234.9555  1.00250016 11136
BEIDOU-3 M23 (C45)      
1 44542U 19061A   22176.25053287  .00000052  00000+0  00000+0 0  9991
2 44542  54.5814 231.8472 0007920 326.0398  33.9952  1.86231355 18738
BEIDOU-3 M24 (C46)      
1 44543U 19061B   22175.77496791  .00000046  00000+0  00000+0 0  9992
2 44543  54.5796 231.8324 0005349 312.0686   0.4402  1.86231674 18713
BEIDOU-3 IGSO-3         
1 44709U 19073A   22176.19046178 -.00000222  00000+0  10000-3 0  9998
2 44709  57.2544 296.3047 0023126 175.2709 347.1222  1.00254182  9877
BEIDOU-3 M21            
1 44793U 19078A   22175.30164661 -.00000106  00000+0  10000-3 0  9997
2 44793  54.9712 350.3811 0006822  21.4090 167.0176  1.86232251 17570
BEIDOU-3 M22            
1 44794U 19078B   22174.88015637 -.00000105  00000+0  00000+0 0  9992
2 44794  54.9465 350.3862 0004788  22.1130 155.4059  1.86232773 17563
BEIDOU-3 M19            
1 44864U 19090A   22176.22359167 -.00000048  00000+0  00000+0 0  9999
2 44864  55.4187 111.3042 0018103 274.1349 278.5473  1.86231877 17178
BEIDOU-3 M20            
1 44865U 19090B   22176.53487697 -.00000049  00000+0  00000+0 0  9995
2 44865  55.4216 111.3247 0016586 287.3117 203.9397  1.86231822 17156
BEIDOU-3 G2             
1 45344U 20017A   22176.77275777 -.00000135  00000+0  00000+0 0  9995
2 45344   2.0600 352.4910 0004632 117.5356 162.1186  1.00272678  8700
BEIDOU-3 G3             
1 45807U 20040A   22176.56350553 -.00000346  00000+0  00000+0 0  9992
2 45807   1.4220 303.4506 0006324 328.6958 314.9594  1.00269833  7501
